{"type": "FeatureCollection", "features": [ {"type": "Feature", "properties": {"norad_id": 41175, "name": "GSAT0208 (GALILEO 11)", "group": "galileo", "lat": 41.8263249698255, "lon": 143.69209716298596, "alt_km": 23214.00142266403, "timestamp": "2025-12-21T14:40:48.179633+00:00", "meta": {"OBJECT_NAME": "GSAT0208 (GALILEO 11)", "OBJECT_ID": "2015-079B", "EPOCH": "2025-12-20T08:25:16.296384", "MEAN_MOTION": 1.70474393, "ECCENTRICITY": 0.00018076, "INCLINATION": 55.7157, "RA_OF_ASC_NODE": 106.1693, "ARG_OF_PERICENTER": 359.1842, "MEAN_ANOMALY": 0.7815, "EPHEMERIS_TYPE": 0, "CLASSIFICATION_TYPE": "U", "NORAD_CAT_ID": 41175, "ELEMENT_SET_NO": 999, "REV_AT_EPOCH": 6214, "BSTAR": 0, "MEAN_MOTION_DOT": -2e-08, "MEAN_MOTION_DDOT": 0}, "tle": {"line1": "1 41175U 15079B   25354.35088306 -.00000002  00000+0  00000+0 0  9993", "line2": "2 41175  55.7157 106.1693 0001807 359.1842   0.7815  1.70474393 62146"}}, "geometry": {"type": "Point", "coordinates": [143.69209716298596, 41.8263249698255]}}, {"type": "Feature", "properties": {"norad_id": 41549, "name": "GSAT0211 (GALILEO 14)", "group": "galileo", "lat": -18.2541912616343, "lon": -146.6856742448256, "alt_km": 23215.474737686945, "timestamp": "2025-12-21T14:40:48.179645+00:00", "meta": {"OBJECT_NAME": "GSAT0211 (GALILEO 14)", "OBJECT_ID": "2016-030A", "EPOCH": "2025-12-20T11:24:03.549312", "MEAN_MOTION": 1.70473323, "ECCENTRICITY": 0.00041244, "INCLINATION": 55.1495, "RA_OF_ASC_NODE": 226.6105, "ARG_OF_PERICENTER": 17.8253, "MEAN_ANOMALY": 342.2987, "EPHEMERIS_TYPE": 0, "CLASSIFICATION_TYPE": "U", "NORAD_CAT_ID": 41549, "ELEMENT_SET_NO": 999, "REV_AT_EPOCH": 5962, "BSTAR": 0, "MEAN_MOTION_DOT": 7.1e-07, "MEAN_MOTION_DDOT": 0}, "tle": {"line1": "1 41549U 16030A   25354.47504108  .00000071  00000+0  00000+0 0  9997", "line2": "2 41549  55.1495 226.6105 0004124  17.8253 342.2987  1.70473323 59620"}}, "geometry": {"type": "Point", "coordinates": [-146.6856742448256, -18.2541912616343]}}, {"type": "Feature", "properties": {"norad_id": 41550, "name": "GSAT0210 (GALILEO 13)", "group": "galileo", "lat": 0.2901789495465435, "lon": 46.39106746515848, "alt_km": 23220.87892565401, "timestamp": "2025-12-21T14:40:48.179657+00:00", "meta": {"OBJECT_NAME": "GSAT0210 (GALILEO 13)", "OBJECT_ID": "2016-030B", "EPOCH": "2025-12-18T23:20:38.714784", "MEAN_MOTION": 1.70473668, "ECCENTRICITY": 7.917e-05, "INCLINATION": 55.1496, "RA_OF_ASC_NODE": 226.6499, "ARG_OF_PERICENTER": 227.6007, "MEAN_ANOMALY": 132.5002, "EPHEMERIS_TYPE": 0, "CLASSIFICATION_TYPE": "U", "NORAD_CAT_ID": 41550, "ELEMENT_SET_NO": 999, "REV_AT_EPOCH": 5959, "BSTAR": 0, "MEAN_MOTION_DOT": 6.5e-07, "MEAN_MOTION_DDOT": 0}, "tle": {"line1": "1 41550U 16030B   25352.97267031  .00000065  00000+0  00000+0 0  9996", "line2": "2 41550  55.1496 226.6499 0000791 227.6007 132.5002  1.70473668 59599"}}, "geometry": {"type": "Point", "coordinates": [46.39106746515848, 0.2901789495465435]}}, {"type": "Feature", "properties": {"norad_id": 41859, "name": "GSAT0207 (GALILEO 15)", "group": "galileo", "lat": 7.301368932690884, "lon": 111.07006945887848, "alt_km": 23216.934362525473, "timestamp": "2025-12-21T14:40:48.179668+00:00", "meta": {"OBJECT_NAME": "GSAT0207 (GALILEO 15)", "OBJECT_ID": "2016-069A", "EPOCH": "2025-12-20T10:10:36.025248", "MEAN_MOTION": 1.7047449, "ECCENTRICITY": 0.00023887, "INCLINATION": 55.3864, "RA_OF_ASC_NODE": 106.0375, "ARG_OF_PERICENTER": 318.3578, "MEAN_ANOMALY": 41.5905, "EPHEMERIS_TYPE": 0, "CLASSIFICATION_TYPE": "U", "NORAD_CAT_ID": 41859, "ELEMENT_SET_NO": 999, "REV_AT_EPOCH": 5635, "BSTAR": 0, "MEAN_MOTION_DOT": -2e-08, "MEAN_MOTION_DDOT": 0}, "tle": {"line1": "1 41859U 16069A   25354.42402807 -.00000002  00000+0  00000+0 0  9996", "line2": "2 41859  55.3864 106.0375 0002388 318.3578  41.5905  1.70474490 56357"}}, "geometry": {"type": "Point", "coordinates": [111.07006945887848, 7.301368932690884]}}, {"type": "Feature", "properties": {"norad_id": 41860, "name": "GSAT0212 (GALILEO 16)", "group": "galileo", "lat": 54.45016612822879, "lon": -148.82796313954836, "alt_km": 23214.668406125653, "timestamp": "2025-12-21T14:40:48.179679+00:00", "meta": {"OBJECT_NAME": "GSAT0212 (GALILEO 16)", "OBJECT_ID": "2016-069B", "EPOCH": "2025-12-20T06:39:51.383520", "MEAN_MOTION": 1.70474695, "ECCENTRICITY": 0.00020516, "INCLINATION": 55.384, "RA_OF_ASC_NODE": 106.037, "ARG_OF_PERICENTER": 19.5569, "MEAN_ANOMALY": 340.4166, "EPHEMERIS_TYPE": 0, "CLASSIFICATION_TYPE": "U", "NORAD_CAT_ID": 41860, "ELEMENT_SET_NO": 999, "REV_AT_EPOCH": 5660, "BSTAR": 0, "MEAN_MOTION_DOT": -3e-08, "MEAN_MOTION_DDOT": 0}, "tle": {"line1": "1 41860U 16069B   25354.27767805 -.00000003  00000+0  00000+0 0  9994", "line2": "2 41860  55.3840 106.0370 0002051  19.5569 340.4166  1.70474695 56600"}}, "geometry": {"type": "Point", "coordinates": [-148.82796313954836, 54.45016612822879]}}, {"type": "Feature", "properties": {"norad_id": 41861, "name": "GSAT0213 (GALILEO 17)", "group": "galileo", "lat": -41.17936871682362, "lon": -36.89122158415474, "alt_km": 23221.934741205732, "timestamp": "2025-12-21T14:40:48.179691+00:00", "meta": {"OBJECT_NAME": "GSAT0213 (GALILEO 17)", "OBJECT_ID": "2016-069C", "EPOCH": "2025-12-17T17:05:43.699776", "MEAN_MOTION": 1.70474994, "ECCENTRICITY": 0.000259, "INCLINATION": 55.385, "RA_OF_ASC_NODE": 106.1156, "ARG_OF_PERICENTER": 282.1972, "MEAN_ANOMALY": 77.7328, "EPHEMERIS_TYPE": 0, "CLASSIFICATION_TYPE": "U", "NORAD_CAT_ID": 41861, "ELEMENT_SET_NO": 999, "REV_AT_EPOCH": 5642, "BSTAR": 0, "MEAN_MOTION_DOT": -9e-08, "MEAN_MOTION_DDOT": 0}, "tle": {"line1": "1 41861U 16069C   25351.71231134 -.00000009  00000+0  00000+0 0  9998", "line2": "2 41861  55.3850 106.1156 0002590 282.1972  77.7328  1.70474994 56421"}}, "geometry": {"type": "Point", "coordinates": [-36.89122158415474, -41.17936871682362]}}, {"type": "Feature", "properties": {"norad_id": 41862, "name": "GSAT0214 (GALILEO 18)", "group": "galileo", "lat": 29.295004047546893, "lon": -96.76824406810132, "alt_km": 23222.288639841165, "timestamp": "2025-12-21T14:40:48.179702+00:00", "meta": {"OBJECT_NAME": "GSAT0214 (GALILEO 18)", "OBJECT_ID": "2016-069D", "EPOCH": "2025-12-17T20:35:58.649280", "MEAN_MOTION": 1.70474854, "ECCENTRICITY": 0.00015422, "INCLINATION": 55.383, "RA_OF_ASC_NODE": 106.1044, "ARG_OF_PERICENTER": 289.1766, "MEAN_ANOMALY": 70.7658, "EPHEMERIS_TYPE": 0, "CLASSIFICATION_TYPE": "U", "NORAD_CAT_ID": 41862, "ELEMENT_SET_NO": 999, "REV_AT_EPOCH": 5655, "BSTAR": 0, "MEAN_MOTION_DOT": -9e-08, "MEAN_MOTION_DDOT": 0}, "tle": {"line1": "1 41862U 16069D   25351.85831770 -.00000009  00000+0  00000+0 0  9996", "line2": "2 41862  55.3830 106.1044 0001542 289.1766  70.7658  1.70474854 56558"}}, "geometry": {"type": "Point", "coordinates": [-96.76824406810132, 29.295004047546893]}}, {"type": "Feature", "properties": {"norad_id": 43055, "name": "GSAT0215 (GALILEO 19)", "group": "galileo", "lat": -18.436652871377433, "lon": 59.84635253110804, "alt_km": 23227.66232885771, "timestamp": "2025-12-21T14:40:48.179713+00:00", "meta": {"OBJECT_NAME": "GSAT0215 (GALILEO 19)", "OBJECT_ID": "2017-079A", "EPOCH": "2025-12-18T08:21:56.206080", "MEAN_MOTION": 1.70474068, "ECCENTRICITY": 0.00012335, "INCLINATION": 55.1282, "RA_OF_ASC_NODE": 226.4832, "ARG_OF_PERICENTER": 345.8587, "MEAN_ANOMALY": 14.2435, "EPHEMERIS_TYPE": 0, "CLASSIFICATION_TYPE": "U", "NORAD_CAT_ID": 43055, "ELEMENT_SET_NO": 999, "REV_AT_EPOCH": 4990, "BSTAR": 0, "MEAN_MOTION_DOT": 6.2e-07, "MEAN_MOTION_DDOT": 0}, "tle": {"line1": "1 43055U 17079A   25352.34856720  .00000062  00000+0  00000+0 0  9999", "line2": "2 43055  55.1282 226.4832 0001233 345.8587  14.2435  1.70474068 49906"}}, "geometry": {"type": "Point", "coordinates": [59.84635253110804, -18.436652871377433]}}, {"type": "Feature", "properties": {"norad_id": 43056, "name": "GSAT0216 (GALILEO 20)", "group": "galileo", "lat": 19.40078333177864, "lon": -119.38043732416345, "alt_km": 23216.365129146492, "timestamp": "2025-12-21T14:40:48.179725+00:00", "meta": {"OBJECT_NAME": "GSAT0216 (GALILEO 20)", "OBJECT_ID": "2017-079B", "EPOCH": "2025-12-19T19:30:44.926272", "MEAN_MOTION": 1.70474153, "ECCENTRICITY": 0.00023685, "INCLINATION": 55.1281, "RA_OF_ASC_NODE": 226.4428, "ARG_OF_PERICENTER": 323.7267, "MEAN_ANOMALY": 36.3665, "EPHEMERIS_TYPE": 0, "CLASSIFICATION_TYPE": "U", "NORAD_CAT_ID": 43056, "ELEMENT_SET_NO": 999, "REV_AT_EPOCH": 4994, "BSTAR": 0, "MEAN_MOTION_DOT": 6.9e-07, "MEAN_MOTION_DDOT": 0}, "tle": {"line1": "1 43056U 17079B   25353.81301998  .00000069  00000+0  00000+0 0  9992", "line2": "2 43056  55.1281 226.4428 0002368 323.7267  36.3665  1.70474153 49946"}}, "geometry": {"type": "Point", "coordinates": [-119.38043732416345, 19.40078333177864]}}, {"type": "Feature", "properties": {"norad_id": 43057, "name": "GSAT0217 (GALILEO 21)", "group": "galileo", "lat": -49.71166563718649, "lon": 101.72670615831528, "alt_km": 23229.135483272166, "timestamp": "2025-12-21T14:40:48.179742+00:00", "meta": {"OBJECT_NAME": "GSAT0217 (GALILEO 21)", "OBJECT_ID": "2017-079C", "EPOCH": "2025-12-18T06:34:31.891008", "MEAN_MOTION": 1.70474093, "ECCENTRICITY": 0.0002798, "INCLINATION": 55.1266, "RA_OF_ASC_NODE": 226.4833, "ARG_OF_PERICENTER": 348.1017, "MEAN_ANOMALY": 11.9971, "EPHEMERIS_TYPE": 0, "CLASSIFICATION_TYPE": "U", "NORAD_CAT_ID": 43057, "ELEMENT_SET_NO": 999, "REV_AT_EPOCH": 4990, "BSTAR": 0, "MEAN_MOTION_DOT": 6.1e-07, "MEAN_MOTION_DDOT": 0}, "tle": {"line1": "1 43057U 17079C   25352.27398022  .00000061  00000+0  00000+0 0  9998", "line2": "2 43057  55.1266 226.4833 0002798 348.1017  11.9971  1.70474093 49909"}}, "geometry": {"type": "Point", "coordinates": [101.72670615831528, -49.71166563718649]}}]}